NORAD_CAT_ID,OBJECT_NAME,OBJECT_TYPE,EPOCH,MEAN_MOTION,ECCENTRICITY,INCLINATION,RA_OF_ASC_NODE,ARG_OF_PERICENTER,MEAN_ANOMALY,BSTAR,MEAN_MOTION_DOT,MEAN_MOTION_DDOT,TLE_LINE0,TLE_LINE1,TLE_LINE2,SEMIMAJOR_AXIS,PERIOD,APOGEE,PERIGEE,DECAYED
53276.0,STARLINK-4174,PAYLOAD,2024-07-26 12:09:53,15.08849839,0.0001462,53.2184,318.0468,73.2842,286.831,0.00019629,2.838e-05,0.0,0 STARLINK-4174,1 53276U 22086AL  24208.50686397  .00002838  00000-0  19629-3 0  9992,2 53276  53.2184 318.0468 0001462  73.2842 286.8310 15.08849839111946,6917.85,95.437,540.727,538.704,0.0
53276.0,STARLINK-4174,PAYLOAD,2024-07-26 16:56:01,15.08864285,0.0001084,53.2153,317.1513,76.8069,283.3044,0.00041727,6.364e-05,0.0,0 STARLINK-4174,1 53276U 22086AL  24208.70557685  .00006364  00000-0  41727-3 0  9993,2 53276  53.2153 317.1513 0001084  76.8069 283.3044 15.08864285111806,6917.806,95.436,540.421,538.921,0.0
53276.0,STARLINK-4174,PAYLOAD,2024-07-27 10:25:17,15.088377,0.0002149,53.2152,313.8817,106.543,253.5798,-4.2817e-05,-9.7e-06,0.0,0 STARLINK-4174,1 53276U 22086AL  24209.43423096 -.00000970  00000-0 -42817-4 0  9993,2 53276  53.2152 313.8817 0002149 106.5430 253.5798 15.08837700111910,6917.887,95.438,541.239,538.266,0.0
53276.0,STARLINK-4174,PAYLOAD,2024-07-27 16:46:50,15.08839525,0.0001636,53.217,312.6934,82.9484,277.1695,-2.1062e-05,-6.23e-06,0.0,0 STARLINK-4174,1 53276U 22086AL  24209.69919155 -.00000623  00000-0 -21062-4 0  9991,2 53276  53.2170 312.6934 0001636  82.9484 277.1695 15.08839525112122,6917.882,95.438,540.879,538.615,0.0
53276.0,STARLINK-4174,PAYLOAD,2024-07-28 13:26:50,15.08848034,0.000156,53.2182,308.8277,91.0299,269.0871,0.00014956,2.094e-05,0.0,0 STARLINK-4174,1 53276U 22086AL  24210.56030686  .00002094  00000-0  14956-3 0  9997,2 53276  53.2182 308.8277 0001560  91.0299 269.0871 15.08848034112089,6917.856,95.437,540.8,538.642,0.0
53276.0,STARLINK-4174,PAYLOAD,2024-07-28 15:02:13,15.08853389,0.0001541,53.2178,308.5293,91.7751,268.3417,0.00014024,1.945e-05,0.0,0 STARLINK-4174,1 53276U 22086AL  24210.62654377  .00001945  00000-0  14024-3 0  9993,2 53276  53.2178 308.5293 0001541  91.7751 268.3417 15.08853389112265,6917.839,95.437,540.771,538.638,0.0
53276.0,STARLINK-4174,PAYLOAD,2024-07-29 13:17:37,15.08845584,0.0001571,53.2174,304.3674,95.9212,264.1959,0.00022466,3.29e-05,0.0,0 STARLINK-4174,1 53276U 22086AL  24211.55390977  .00003290  00000-0  22466-3 0  9993,2 53276  53.2174 304.3674 0001571  95.9212 264.1959 15.08845584112239,6917.863,95.437,540.815,538.642,0.0
53276.0,STARLINK-4174,PAYLOAD,2024-07-29 16:28:23,15.08850146,0.0001686,53.2176,303.7712,95.9816,264.1368,0.00028077,4.184e-05,0.0,0 STARLINK-4174,1 53276U 22086AL  24211.68638741  .00004184  00000-0  28077-3 0  9998,2 53276  53.2176 303.7712 0001686  95.9816 264.1368 15.08850146112429,6917.849,95.437,540.881,538.548,0.0
53276.0,STARLINK-4174,PAYLOAD,2024-07-30 13:08:24,15.08841491,0.0001522,53.2171,299.9078,98.3401,261.7764,3.9901e-05,3.47e-06,0.0,0 STARLINK-4174,1 53276U 22086AL  24212.54750976  .00000347  00000-0  39901-4 0  9995,2 53276  53.2171 299.9078 0001522  98.3401 261.7764 15.08841491112382,6917.876,95.437,540.794,538.688,0.0
53276.0,STARLINK-4174,PAYLOAD,2024-07-30 14:43:48,15.08845618,0.0001617,53.2177,299.6096,93.3231,266.7946,0.00014088,1.955e-05,0.0,0 STARLINK-4174,1 53276U 22086AL  24212.61375062  .00001955  00000-0  14088-3 0  9996,2 53276  53.2177 299.6096 0001617  93.3231 266.7946 15.08845618112568,6917.863,95.437,540.847,538.61,0.0
53276.0,STARLINK-4174,PAYLOAD,2024-07-30 22:40:44,15.08833869,0.0001799,53.2172,298.1202,89.35,270.7699,-1.5843e-06,-3.13e-06,0.0,0 STARLINK-4174,1 53276U 22086AL  24212.94495562 -.00000313  00000-0 -15843-5 0  9991,2 53276  53.2172 298.1202 0001799  89.3500 270.7699 15.08833869112443,6917.899,95.438,541.009,538.52,0.0
53276.0,STARLINK-4174,PAYLOAD,2024-07-31 14:34:35,15.0883622,0.0001602,53.2185,295.1475,89.8588,270.2588,7.9528e-05,9.78e-06,0.0,0 STARLINK-4174,1 53276U 22086AL  24213.60735950  .00000978  00000-0  79528-4 0  9997,2 53276  53.2185 295.1475 0001602  89.8588 270.2588 15.08836220112716,6917.892,95.438,540.865,538.649,0.0
53276.0,STARLINK-4174,PAYLOAD,2024-08-01 11:14:35,15.08862364,0.0001478,53.2171,291.2817,87.6328,272.4833,0.00059017,9.123e-05,0.0,0 STARLINK-4174,1 53276U 22086AL  24214.46847155  .00009123  00000-0  59017-3 0  9994,2 53276  53.2171 291.2817 0001478  87.6328 272.4833 15.08862364112677,6917.812,95.436,540.699,538.655,0.0
53276.0,STARLINK-4174,PAYLOAD,2024-08-01 14:25:22,15.0887086,0.000149,53.2173,290.6884,96.1897,263.9265,0.0010297,0.00016151,0.0,0 STARLINK-4174,1 53276U 22086AL  24214.60095003  .00016151  00000-0  10297-2 0  9992,2 53276  53.2173 290.6884 0001490  96.1897 263.9265 15.08870860112861,6917.786,95.436,540.682,538.62,0.0
53276.0,STARLINK-4174,PAYLOAD,2024-08-01 22:22:17,15.08850348,0.0001996,53.2177,289.2001,77.066,283.0555,8.3738e-05,1.045e-05,0.0,0 STARLINK-4174,1 53276U 22086AL  24214.93215264  .00001045  00000-0  83738-4 0  9999,2 53276  53.2177 289.2001 0001996  77.0660 283.0555 15.08850348112917,6917.849,95.437,541.095,538.333,0.0
53276.0,STARLINK-4174,PAYLOAD,2024-08-02 14:16:09,15.08846166,0.0001527,53.2166,286.2215,94.4086,265.7081,0.00011969,1.618e-05,0.0,0 STARLINK-4174,1 53276U 22086AL  24215.59455175  .00001618  00000-0  11969-3 0  9991,2 53276  53.2166 286.2215 0001527  94.4086 265.7081 15.08846166113010,6917.862,95.437,540.783,538.67,0.0
53276.0,STARLINK-4174,PAYLOAD,2024-08-03 04:34:37,15.08838641,0.0001845,53.218,283.5472,97.4432,262.677,0.00011493,1.541e-05,0.0,0 STARLINK-4174,1 53276U 22086AL  24216.19071518  .00001541  00000-0  11493-3 0  9990,2 53276  53.2180 283.5472 0001845  97.4432 262.6770 15.08838641112932,6917.885,95.438,541.026,538.473,0.0
53276.0,STARLINK-4174,PAYLOAD,2024-08-03 10:56:10,15.08844907,0.0001392,53.216,282.3618,88.1535,271.9617,0.00018943,2.729e-05,0.0,0 STARLINK-4174,1 53276U 22086AL  24216.45567397  .00002729  00000-0  18943-3 0  9990,2 53276  53.2160 282.3618 0001392  88.1535 271.9617 15.08844907113146,6917.865,95.437,540.693,538.767,0.0
53276.0,STARLINK-4174,PAYLOAD,2024-08-03 22:03:52,15.088433,0.0001422,53.2146,280.2803,82.856,277.2594,0.00029205,4.363e-05,0.0,0 STARLINK-4174,1 53276U 22086AL  24216.91935584  .00004363  00000-0  29205-3 0  9997,2 53276  53.2146 280.2803 0001422  82.8560 277.2594 15.08843300113213,6917.87,95.437,540.719,538.752,0.0
53276.0,STARLINK-4174,PAYLOAD,2024-08-04 10:46:57,15.08839929,0.0001684,53.2161,277.9002,91.2706,268.8479,0.00017035,2.424e-05,0.0,0 STARLINK-4174,1 53276U 22086AL  24217.44927819  .00002424  00000-0  17035-3 0  9992,2 53276  53.2161 277.9002 0001684  91.2706 268.8479 15.08839929113120,6917.881,95.438,540.911,538.581,0.0
53276.0,STARLINK-4174,PAYLOAD,2024-08-05 20:10:02,15.08851848,0.0001089,53.2162,271.6543,84.578,275.5336,0.00025581,3.787e-05,0.0,0 STARLINK-4174,1 53276U 22086AL  24218.84030901  .00003787  00000-0  25581-3 0  9992,2 53276  53.2162 271.6543 0001089  84.5780 275.5336 15.08851848113332,6917.844,95.437,540.463,538.956,0.0
53276.0,STARLINK-4174,PAYLOAD,2024-08-06 04:06:59,15.08832148,0.0002151,53.216,270.1727,98.7249,261.3987,-5.8241e-05,-1.215e-05,0.0,0 STARLINK-4174,1 53276U 22086AL  24219.17151809 -.00001215  00000-0 -58241-4 0  9996,2 53276  53.2160 270.1727 0002151  98.7249 261.3987 15.08832148113388,6917.904,95.438,541.257,538.281,0.0
53276.0,STARLINK-4174,PAYLOAD,2024-08-06 08:53:09,15.08822705,0.000153,53.216,269.2766,86.0518,274.0649,-0.00023073,-3.956e-05,0.0,0 STARLINK-4174,1 53276U 22086AL  24219.37024487 -.00003956  00000-0 -23073-3 0  9997,2 53276  53.2160 269.2766 0001530  86.0518 274.0649 15.08822705113417,6917.933,95.439,540.857,538.74,0.0
53276.0,STARLINK-4174,PAYLOAD,2024-08-07 10:19:19,15.08845994,0.0001386,53.2157,264.52,78.9431,281.1717,0.0008857,0.00013838,0.0,0 STARLINK-4174,1 53276U 22086AL  24220.43008756  .00013838  00000-0  88570-3 0  9998,2 53276  53.2157 264.5200 0001386  78.9431 281.1717 15.08845994113574,6917.862,95.437,540.686,538.768,0.0
53276.0,STARLINK-4174,PAYLOAD,2024-08-08 11:45:28,15.08866355,0.0001441,53.2151,259.7616,80.9783,279.1372,0.00084004,0.00013116,0.0,0 STARLINK-4174,1 53276U 22086AL  24221.48991844  .00013116  00000-0  84004-3 0  9990,2 53276  53.2151 259.7616 0001441  80.9783 279.1372 15.08866355113905,6917.8,95.436,540.662,538.668,0.0
53276.0,STARLINK-4174,PAYLOAD,2024-08-09 02:03:57,15.08851998,0.0001578,53.2149,257.0856,81.6797,278.4374,0.00036744,5.567e-05,0.0,0 STARLINK-4174,1 53276U 22086AL  24222.08607865  .00005567  00000-0  36744-3 0  9993,2 53276  53.2149 257.0856 0001578  81.6797 278.4374 15.08851998113825,6917.844,95.437,540.8,538.617,0.0
53276.0,STARLINK-4174,PAYLOAD,2024-08-09 08:25:29,15.0885106,0.0001443,53.2149,255.8943,88.2477,271.8681,0.00022426,3.284e-05,0.0,0 STARLINK-4174,1 53276U 22086AL  24222.35103718  .00003284  00000-0  22426-3 0  9997,2 53276  53.2149 255.8943 0001443  88.2477 271.8681 15.08851060114039,6917.847,95.437,540.71,538.713,0.0
53276.0,STARLINK-4174,PAYLOAD,2024-08-09 19:33:11,15.08846161,0.0001356,53.2149,253.814,86.5245,273.5902,0.00020183,2.926e-05,0.0,0 STARLINK-4174,1 53276U 22086AL  24222.81471783  .00002926  00000-0  20183-3 0  9998,2 53276  53.2149 253.8140 0001356  86.5245 273.5902 15.08846161113932,6917.862,95.437,540.665,538.788,0.0
53276.0,STARLINK-4174,PAYLOAD,2024-08-10 11:27:03,15.08845177,0.0001662,53.2171,250.8385,98.1136,262.0045,3.2324e-05,2.26e-06,0.0,0 STARLINK-4174,1 53276U 22086AL  24223.47712021  .00000226  00000-0  32324-4 0  9996,2 53276  53.2171 250.8385 0001662  98.1136 262.0045 15.08845177114032,6917.865,95.437,540.879,538.58,0.0
53276.0,STARLINK-4174,PAYLOAD,2024-08-11 01:45:30,15.08860565,7.75e-05,53.2158,248.1639,97.9823,262.1257,0.00044118,6.744e-05,0.0,0 STARLINK-4174,1 53276U 22086AL  24224.07326799  .00006744  00000-0  44118-3 0  9990,2 53276  53.2158 248.1639 0000775  97.9823 262.1257 15.08860565114127,6917.818,95.436,540.219,539.146,0.0
